ONEWEB-0435             
1 51632U 22012L   25346.27242463 -.00000510  00000+0 -14986-2 0  9991
2 51632  87.8803  73.5468 0001975  95.6738 264.4615 13.10371890184831
ONEWEB-0436             
1 51633U 22012M   25346.18143056 -.00000137  00000+0 -38494-3 0  9996
2 51633  87.9123  43.0198 0001775  93.1310 267.0025 13.17649026189056
ONEWEB-0438             
1 51634U 22012N   25346.25583063  .00000050  00000+0  10687-3 0  9997
2 51634  87.8805  73.5511 0001689 112.6447 247.4859 13.10368368184863
ONEWEB-0439             
1 51635U 22012P   25346.25915422 -.00000035  00000+0 -13653-3 0  9997
2 51635  87.8804  73.5391 0001742 105.2969 254.8351 13.10369859184849
ONEWEB-0442             
1 51636U 22012Q   25346.17382880  .00000020  00000+0  19256-4 0  9993
2 51636  87.9111  43.0690 0001599 121.1761 238.9527 13.17650859189048
ONEWEB-0443             
1 51637U 22012R   25346.19324237 -.00000181  00000+0 -49953-3 0  9994
2 51637  87.9106  43.0701 0002012 107.2169 252.9183 13.17648986189091
ONEWEB-0444             
1 51638U 22012S   25346.24920096  .00000439  00000+0  12217-2 0  9992
2 51638  87.8801  73.5392 0001725 106.0214 254.1103 13.10369620184858
ONEWEB-0445             
1 51639U 22012T   25346.27076249 -.00000496  00000+0 -14585-2 0  9993
2 51639  87.8822  73.5023 0001453 107.5648 252.5638 13.10370855184866
